{
  "norad_id": 53506,
  "name": "STARLINK-4437",
  "history": [
    {
      "epoch": "2026-04-10T12:00:02.000160Z",
      "apogee_km": 519.6320034405662,
      "perigee_km": 517.3699061913858,
      "latitude_deg": -34.62723004727479,
      "longitude_deg": 18.734812103948848,
      "height_km": 532.5448747863295,
      "semi_major_axis_km": 6896.637954815976,
      "eccentricity": 0.000164,
      "inclination_deg": 97.6035,
      "raan_deg": 222.7362,
      "arg_perigee_deg": 73.4061,
      "mean_anomaly_deg": 141.2862,
      "mean_motion_rev_day": 15.15816465
    },
    {
      "epoch": "2026-04-11T20:00:01.000224Z",
      "apogee_km": 515.7038393519324,
      "perigee_km": 513.8937544116716,
      "latitude_deg": -70.48791654279427,
      "longitude_deg": 106.0080100588319,
      "height_km": 541.8699880115253,
      "semi_major_axis_km": 6892.935796881801,
      "eccentricity": 0.0001313,
      "inclination_deg": 97.6012,
      "raan_deg": 224.0638,
      "arg_perigee_deg": 78.6795,
      "mean_anomaly_deg": 209.5139,
      "mean_motion_rev_day": 15.17037834
    },
    {
      "epoch": "2026-04-13T06:00:02.000160Z",
      "apogee_km": 514.1969398882093,
      "perigee_km": 511.7758126012004,
      "latitude_deg": 76.06132431453948,
      "longitude_deg": 146.37376821679152,
      "height_km": 524.9432219973376,
      "semi_major_axis_km": 6891.123376244705,
      "eccentricity": 0.00017567,
      "inclination_deg": 97.6029,
      "raan_deg": 225.4915,
      "arg_perigee_deg": 67.2123,
      "mean_anomaly_deg": 34.5671,
      "mean_motion_rev_day": 15.17636363
    },
    {
      "epoch": "2026-04-14T20:00:01.999008Z",
      "apogee_km": 511.02657097051906,
      "perigee_km": 507.53465024194156,
      "latitude_deg": 69.34004585088911,
      "longitude_deg": -75.31313866727481,
      "height_km": 519.5616778924536,
      "semi_major_axis_km": 6887.4176106062305,
      "eccentricity": 0.0002535,
      "inclination_deg": 97.6053,
      "raan_deg": 227.0799,
      "arg_perigee_deg": 99.479,
      "mean_anomaly_deg": 9.8705,
      "mean_motion_rev_day": 15.18861371
    },
    {
      "epoch": "2026-04-15T20:00:01.999008Z",
      "apogee_km": 508.90865838232,
      "perigee_km": 506.9254748111398,
      "latitude_deg": 5.398113752188918,
      "longitude_deg": -95.18901517115489,
      "height_km": 510.24811604846906,
      "semi_major_axis_km": 6886.05406659673,
      "eccentricity": 0.000144,
      "inclination_deg": 97.6044,
      "raan_deg": 228.0902,
      "arg_perigee_deg": 96.8564,
      "mean_anomaly_deg": 77.5932,
      "mean_motion_rev_day": 15.1931253
    },
    {
      "epoch": "2026-04-16T20:00:01.999008Z",
      "apogee_km": 508.0509807925155,
      "perigee_km": 506.01847809798346,
      "latitude_deg": -60.15465893786227,
      "longitude_deg": -109.26752154735053,
      "height_km": 531.2146074197824,
      "semi_major_axis_km": 6885.171729445249,
      "eccentricity": 0.0001476,
      "inclination_deg": 97.6049,
      "raan_deg": 229.0973,
      "arg_perigee_deg": 81.3936,
      "mean_anomaly_deg": 159.4299,
      "mean_motion_rev_day": 15.1960459
    },
    {
      "epoch": "2026-04-18T00:00:04.000320Z",
      "apogee_km": 505.9306483928367,
      "perigee_km": 503.8852827508672,
      "latitude_deg": 38.68746775880771,
      "longitude_deg": -149.7650220499336,
      "height_km": 509.7698446023928,
      "semi_major_axis_km": 6883.044965571851,
      "eccentricity": 0.00014858,
      "inclination_deg": 97.6043,
      "raan_deg": 230.2737,
      "arg_perigee_deg": 89.8025,
      "mean_anomaly_deg": 51.1746,
      "mean_motion_rev_day": 15.20308949
    },
    {
      "epoch": "2026-04-18T20:00:01.000224Z",
      "apogee_km": 505.44757237637987,
      "perigee_km": 503.3167444449364,
      "latitude_deg": 18.765127748062753,
      "longitude_deg": 81.57478022317014,
      "height_km": 506.4837684438634,
      "semi_major_axis_km": 6882.519158410658,
      "eccentricity": 0.0001548,
      "inclination_deg": 97.6037,
      "raan_deg": 231.1108,
      "arg_perigee_deg": 83.3245,
      "mean_anomaly_deg": 295.6331,
      "mean_motion_rev_day": 15.20483174
    },
    {
      "epoch": "2026-04-19T20:00:01.999008Z",
      "apogee_km": 503.3431146022749,
      "perigee_km": 501.5706736151533,
      "latitude_deg": 82.43024857064505,
      "longitude_deg": -3.3287230986283496,
      "height_km": 515.2022966584902,
      "semi_major_axis_km": 6880.593894108714,
      "eccentricity": 0.0001288,
      "inclination_deg": 97.604,
      "raan_deg": 232.1157,
      "arg_perigee_deg": 63.5825,
      "mean_anomaly_deg": 26.0809,
      "mean_motion_rev_day": 15.2112139
    },
    {
      "epoch": "2026-04-20T14:00:03.000384Z",
      "apogee_km": 501.35213917334386,
      "perigee_km": 499.83331564953187,
      "latitude_deg": -53.8670824386889,
      "longitude_deg": -16.287855761259195,
      "height_km": 522.2559008575357,
      "semi_major_axis_km": 6878.729727411437,
      "eccentricity": 0.0001104,
      "inclination_deg": 97.6034,
      "raan_deg": 232.8728,
      "arg_perigee_deg": 75.3026,
      "mean_anomaly_deg": 159.0108,
      "mean_motion_rev_day": 15.21739778
    },
    {
      "epoch": "2026-04-21T20:00:01.999008Z",
      "apogee_km": 499.6770752329039,
      "perigee_km": 496.7257507860395,
      "latitude_deg": -58.14451252320256,
      "longitude_deg": -108.10967575133465,
      "height_km": 521.9580293649699,
      "semi_major_axis_km": 6876.338413009471,
      "eccentricity": 0.0002146,
      "inclination_deg": 97.6035,
      "raan_deg": 234.1388,
      "arg_perigee_deg": 92.5112,
      "mean_anomaly_deg": 146.2136,
      "mean_motion_rev_day": 15.22533647
    },
    {
      "epoch": "2026-04-22T20:00:03.000384Z",
      "apogee_km": 497.6251907587475,
      "perigee_km": 495.4871611810204,
      "latitude_deg": -42.76710219228665,
      "longitude_deg": 91.30588196589287,
      "height_km": 513.6726385768012,
      "semi_major_axis_km": 6874.693175969884,
      "eccentricity": 0.0001555,
      "inclination_deg": 97.6037,
      "raan_deg": 235.1542,
      "arg_perigee_deg": 81.7999,
      "mean_anomaly_deg": 235.2524,
      "mean_motion_rev_day": 15.23080234
    },
    {
      "epoch": "2026-04-23T16:00:01.999584Z",
      "apogee_km": 495.2411046450861,
      "perigee_km": 493.379908411368,
      "latitude_deg": -24.34533364106634,
      "longitude_deg": -39.165513341804115,
      "height_km": 503.59628180270295,
      "semi_major_axis_km": 6872.447506528227,
      "eccentricity": 0.00013541,
      "inclination_deg": 97.6038,
      "raan_deg": 235.9973,
      "arg_perigee_deg": 110.9418,
      "mean_anomaly_deg": 93.3659,
      "mean_motion_rev_day": 15.23826827
    },
    {
      "epoch": "2026-04-24T20:00:01.999008Z",
      "apogee_km": 493.8560452777183,
      "perigee_km": 491.4237902488303,
      "latitude_deg": 58.37847995480911,
      "longitude_deg": -83.24121279347787,
      "height_km": 501.9054901491366,
      "semi_major_axis_km": 6870.776917763274,
      "eccentricity": 0.000177,
      "inclination_deg": 97.604,
      "raan_deg": 237.1756,
      "arg_perigee_deg": 61.8127,
      "mean_anomaly_deg": 59.0618,
      "mean_motion_rev_day": 15.24382625
    },
    {
      "epoch": "2026-04-25T20:00:01.000224Z",
      "apogee_km": 491.37304790259805,
      "perigee_km": 488.99386169705485,
      "latitude_deg": -25.708805084320783,
      "longitude_deg": -99.32238557510318,
      "height_km": 500.4087754780098,
      "semi_major_axis_km": 6868.320454799826,
      "eccentricity": 0.0001732,
      "inclination_deg": 97.6017,
      "raan_deg": 238.1917,
      "arg_perigee_deg": 90.7539,
      "mean_anomaly_deg": 114.9248,
      "mean_motion_rev_day": 15.25200494
    },
    {
      "epoch": "2026-04-26T22:00:00.999936Z",
      "apogee_km": 488.63909588710067,
      "perigee_km": 486.65611997663655,
      "latitude_deg": 30.57216509646297,
      "longitude_deg": 49.87580815904775,
      "height_km": 491.12079316470107,
      "semi_major_axis_km": 6865.784607931868,
      "eccentricity": 0.00014441,
      "inclination_deg": 97.6025,
      "raan_deg": 239.2913,
      "arg_perigee_deg": 89.7949,
      "mean_anomaly_deg": 301.035,
      "mean_motion_rev_day": 15.26045561
    },
    {
      "epoch": "2026-04-27T20:00:03.000384Z",
      "apogee_km": 486.53612590456123,
      "perigee_km": 484.6595807956546,
      "latitude_deg": 23.77444150298508,
      "longitude_deg": 81.04400994512152,
      "height_km": 487.9720462648778,
      "semi_major_axis_km": 6863.734853350107,
      "eccentricity": 0.0001367,
      "inclination_deg": 97.6039,
      "raan_deg": 240.2268,
      "arg_perigee_deg": 69.5799,
      "mean_anomaly_deg": 314.4055,
      "mean_motion_rev_day": 15.26729209
    },
    {
      "epoch": "2026-04-28T20:00:01.000224Z",
      "apogee_km": 484.44596498934516,
      "perigee_km": 482.195406868359,
      "latitude_deg": 62.005895232355094,
      "longitude_deg": -81.10528606424876,
      "height_km": 493.02934933722116,
      "semi_major_axis_km": 6861.457685928852,
      "eccentricity": 0.000164,
      "inclination_deg": 97.6033,
      "raan_deg": 241.2405,
      "arg_perigee_deg": 83.9042,
      "mean_anomaly_deg": 33.21,
      "mean_motion_rev_day": 15.27489304
    },
    {
      "epoch": "2026-04-29T20:00:01.999008Z",
      "apogee_km": 482.1920888338027,
      "perigee_km": 479.6021175564356,
      "latitude_deg": -33.16105958294642,
      "longitude_deg": -100.50782306249415,
      "height_km": 494.0757089824316,
      "semi_major_axis_km": 6859.034103195118,
      "eccentricity": 0.0001888,
      "inclination_deg": 97.6034,
      "raan_deg": 242.2655,
      "arg_perigee_deg": 95.8749,
      "mean_anomaly_deg": 117.3251,
      "mean_motion_rev_day": 15.28298964
    }
  ]
}